H-2A DEB                
1 57802U 23137C   23262.43669458  .00013948  00000+0  11478-2 0  9995
2 57802  31.0036 297.8681 0011377  28.4449 331.6805 14.97921417  1875
SLIM                    
1 57803U 23137D   23263.61278911 -.00000399  00000+0  00000+0 0  9990
2 57803  31.0785  16.1419 8937679 244.9021 359.8145  0.55216879    77
H-2A R/B                
1 57804U 23137E   23262.22590615 -.00002030  00000+0 -15684-1 0  9996
2 57804  30.3199  15.7657 8799123 245.0766   8.8285  0.65749322    88
H-2A DEB                
1 57805U 23137F   23263.36814058  .00022430  00000+0  18337-2 0  9996
2 57805  30.9989 291.9506 0010296  47.4357 312.7145 14.98227750  1936
H-2A DEB                
1 57806U 23137G   23262.41773950  .00052869  00000+0  49267-2 0  9992
2 57806  31.0378 298.7402 0036780 357.9642   2.0839 14.92571868  1781
H-2A DEB                
1 57807U 23137H   23262.50071729  .00028815  00000+0  23461-2 0  9990
2 57807  31.0083 297.4198 0010657  41.3449 318.7991 14.98378205  1790
STARLINK-30304          
1 57808U 23138A   23262.83334491 -.00724097  00000+0 -37529-2 0  9993
2 57808  43.0000 107.1578 0003867 260.9821 326.3370 15.81879391  2860
STARLINK-30374          
1 57809U 23138B   23263.16667824 -.00731500  00000+0 -38899-2 0  9998
2 57809  43.0005 105.1101 0003757 208.9988 120.2470 15.81352030  2970
STARLINK-30394          
1 57810U 23138C   23263.16667824 -.00738824  00000+0 -39353-2 0  9992
2 57810  43.0005 105.1078 0003838 244.8949  85.3452 15.81334123  2874
STARLINK-30379          
1 57811U 23138D   23263.16667824 -.00743277  00000+0 -39686-2 0  9990
2 57811  43.0006 105.1050 0002263 241.9740  89.3855 15.81310603  2973
STARLINK-30395          
1 57812U 23138E   23263.16667824 -.00749385  00000+0 -40077-2 0  9993
2 57812  43.0006 105.1022 0002890 222.6789 109.8462 15.81284855  2979
STARLINK-30403          
1 57813U 23138F   23263.16667824 -.00757210  00000+0 -40535-2 0  9999
2 57813  43.0006 105.0999 0004480 202.9491 130.5947 15.81264392  2872
STARLINK-30413          
1 57814U 23138G   23262.83334491 -.00750588  00000+0 -39272-2 0  9991
2 57814  43.0001 107.1394 0003701 219.1233  15.5098 15.81745287  2921
STARLINK-30398          
1 57815U 23138H   23262.83334491 -.00757162  00000+0 -39641-2 0  9997
2 57815  43.0003 107.1365 0005725 202.6282  33.2587 15.81720367  2822
STARLINK-30386          
1 57816U 23138J   23263.16667824 -.00707326  00000+0 -38012-2 0  9992
2 57816  43.0009 105.0914 0002240 259.9892  77.0449 15.81082703  2702
STARLINK-30391          
1 57817U 23138K   23263.16667824 -.00778528  00000+0 -41997-2 0  9991
2 57817  43.0007 105.0877 0004935 205.9960 132.2999 15.81147050  2979
STARLINK-30401          
1 57818U 23138L   23263.16667824 -.00788435  00000+0 -42707-2 0  9990
2 57818  43.0008 105.0849 0001760 262.0386  77.3956 15.81120690  2871
STARLINK-30390          
1 57819U 23138M   23263.16667824 -.00789453  00000+0 -42747-2 0  9996
2 57819  43.0008 105.0824 0005038 206.6102 133.8306 15.81092152  2910
STARLINK-30409          
1 57820U 23138N   23262.83334491 -.00784834  00000+0 -41477-2 0  9999
2 57820  43.0005 107.1228 0004760 210.0132  31.5182 15.81602927  2871
STARLINK-30415          
1 57821U 23138P   23263.16667824 -.00803265  00000+0 -43742-2 0  9993
2 57821  43.0011 105.0774 0002340 238.4098 104.1557 15.81038624  2970
STARLINK-30417          
1 57822U 23138Q   23263.16667824 -.00806519  00000+0 -43984-2 0  9997
2 57822  43.0009 105.0742 0003560 216.9567 126.8051 15.81001534  2868
STARLINK-30407          
1 57823U 23138R   23263.16667824 -.00813203  00000+0 -44468-2 0  9994
2 57823  43.0013 105.0727 0002032 254.4489  90.2446 15.80977524  2974
STARLINK-30408          
1 57824U 23138S   23263.50001157 -.00785255  00000+0 -44009-2 0  9990
2 57824  43.0011 103.0303 0004717 197.5647 247.2450 15.80347067  3025
STARLINK-30377          
1 57825U 23138T   23263.16667824 -.00833163  00000+0 -45811-2 0  9996
2 57825  43.0010 105.0665 0001722 209.6438 137.3468 15.80912912  2871
STARLINK-30422          
1 57826U 23138U   23262.83334491 -.00825858  00000+0 -44317-2 0  9993
2 57826  43.0005 107.1025 0002382 237.2976  12.2141 15.81408434  2921
STARLINK-30402          
1 57827U 23138V   23263.16667824 -.00834771  00000+0 -45869-2 0  9997
2 57827  43.0009 105.0634 0005722 197.9783 150.0025 15.80880435  2979
STARLINK-30411          
1 57828U 23138W   23263.16667824 -.00846479  00000+0 -46775-2 0  9993
2 57828  43.0009 105.0584 0003634 206.0293 143.9574 15.80818905  2919
STARLINK-30418          
1 57829U 23138X   23263.50001157 -.00803957  00000+0 -45638-2 0  9994
2 57829  43.0008 103.0169 0001563 250.4921 199.3769 15.80153869  2862
YAOGAN-40 01A           
1 57830U 23139A   23262.79325197  .00000398  00000+0  19355-3 0  9994
2 57830  85.9971 349.0660 0015190 102.7793 257.5091 14.15644113  1377
CZ-6A R/B               
1 57831U 23139B   23263.33807102  .00000754  00000+0  30656-3 0  9990
2 57831  85.9952 348.7948 0011683 219.3017 140.7327 14.26197180  1452
YAOGAN-40 01B           
1 57832U 23139C   23263.50062024  .00000430  00000+0  20035-3 0  9997
2 57832  85.9967 348.7464 0006967 133.2612 226.9157 14.18116920  1470
YAOGAN-40 01C           
1 57833U 23139D   23263.38897105 -.00000375  00000+0 -14850-3 0  9998
2 57833  85.9954 348.7531 0026230 281.8480  77.9772 14.31415324  1461
CZ-6A DEB               
1 57834U 23139E   23262.36498284  .00000468  00000+0  18493-3 0  9999
2 57834  85.9967 349.2389 0010046 242.1333 187.7581 14.26885051  1312
CZ-6A R/B               
1 57835U 23139F   23263.39281928  .00000471  00000+0  14558-3 0  9991
2 57835  86.0018 348.7044 0061298 336.9425  22.9023 14.38173049  1460
VICTUS NOX              
1 57861U 23142A   23263.41642248  .00000048  00000+0  68334-5 0  9996
2 57861  97.2722  89.9653 0014939  67.8720 292.4093 15.08638378   811
SOYUZ-MS 24             
1 57862U 23143A   23261.44473810  .00015356  00000+0  28244-3 0  9998
2 57862  51.6419 226.5842 0005864  32.1953 116.9329 15.49383676416252
2023-145A               
1 57886U 23145A   23262.08839994 -.00000037  00000+0  00000+0 0  9993
2 57886  34.9992  22.6985 0007824 278.4153 248.2370 15.23094404   294
2023-145B               
1 57887U 23145B   23263.30742538 -.00000037  00000+0  00000+0 0  9997
2 57887  35.0013  15.0292 0008476 283.9578 101.6087 15.23513508   483
2023-145C               
1 57888U 23145C   23263.30677620 -.00000038  00000+0  00000+0 0  9998
2 57888  34.9982  15.0152 0009844 297.6109  88.0380 15.23863013   476
2023-145D               
1 57889U 23145D   23262.08807657 -.00000038  00000+0  00000+0 0  9998
2 57889  34.9985  22.6862 0008955 296.8677 233.6409 15.23952721   267
2023-145E               
1 57890U 23145E   23262.08951279  .00022715  00000+0  92289-3 0  9999
2 57890  34.9962  22.6790 0009461 291.7158 244.4266 15.23633415   239
